NUSAT-49 (KLARA DAN VO*)
1 60500U 24149AJ  26068.79810190  .00012912  00000+0  43568-3 0  9991
2 60500  97.3807 150.7380 0001132 286.7761  73.3356 15.30828857 86935
STARLINK-34302          
1 65216U 25176U   26068.47290976  .00021193  00000+0  72558-3 0  9992
2 65216  53.1595 153.9872 0001264 134.6336 225.4768 15.30202628 33081
